[{"OBJECT_NAME":"METOP-SGA1","OBJECT_ID":"2025-172A","EPOCH":"2026-03-09T18:22:16.359168","MEAN_MOTION":14.21429454,"ECCENTRICITY":0.0001154,"INCLINATION":98.6757,"RA_OF_ASC_NODE":130.2282,"ARG_OF_PERICENTER":80.674,"MEAN_ANOMALY":279.4568,"EPHEMERIS_TYPE":0,"CLASSIFICATION_TYPE":"U","NORAD_CAT_ID":65159,"ELEMENT_SET_NO":999,"REV_AT_EPOCH":2966,"BSTAR":3.7676115e-5,"MEAN_MOTION_DOT":3.9e-7,"MEAN_MOTION_DDOT":0},{"OBJECT_NAME":"COSMOS 1275 DEB","OBJECT_ID":"1981-053RT","EPOCH":"2026-02-16T02:12:33.438816","MEAN_MOTION":14.13674107,"ECCENTRICITY":0.00420877,"INCLINATION":82.9108,"RA_OF_ASC_NODE":342.4977,"ARG_OF_PERICENTER":124.6065,"MEAN_ANOMALY":235.9094,"EPHEMERIS_TYPE":0,"CLASSIFICATION_TYPE":"U","NORAD_CAT_ID":42155,"ELEMENT_SET_NO":999,"REV_AT_EPOCH":62757,"BSTAR":0.0014223422,"MEAN_MOTION_DOT":2.724e-5,"MEAN_MOTION_DDOT":0}]
